      2.10          N: GNSS NAV DATA                        RINEX VERSION / TYPE
fic2rin                                 01/14/2021 00:17:32 PGM / RUN BY / DATE
                                                            END OF HEADER
23 21  1 13 16  0  0.0 1.158853992820e-04 1.591615728103e-12 0.000000000000e+00
    1.440000000000e+02-1.453125000000e+02 4.167673600334e-09 1.309771582889e+00
   -7.478520274162e-06 1.084628864191e-03 1.088343560696e-05 5.153649124146e+03
    3.168000000000e+05-1.862645149231e-09-4.532314046215e-02 1.117587089539e-08
    9.632780826158e-01 1.709375000000e+02 2.345366078826e+00-7.770680822904e-09
    1.153619481453e-10 1.000000000000e+00 2.140000000000e+03 0.000000000000e+00
    2.400000000000e+00 0.000000000000e+00-8.381903171539e-09 4.000000000000e+02
    3.096000000000e+05 4.000000000000e+00
28 21  1 13 16  0  0.0 6.302176043391e-04-5.115907697473e-12 0.000000000000e+00
    3.700000000000e+01 8.106250000000e+01 3.714083277905e-09-1.842950870987e+00
    4.293397068977e-06 1.808862993494e-02 1.152232289314e-05 5.153678171158e+03
    3.168000000000e+05 7.450580596924e-08-3.068273715676e+00 4.898756742477e-07
    9.749260045985e-01 1.672187500000e+02-1.356205954462e+00-7.437095499165e-09
   -5.125213485714e-10 1.000000000000e+00 2.140000000000e+03 0.000000000000e+00
    4.850000000000e+00 0.000000000000e+00-1.117587089539e-08 3.700000000000e+01
    3.096000000000e+05 4.000000000000e+00
31 21  1 13 16  0  0.0-9.365798905492e-05-2.273736754432e-12 0.000000000000e+00
    8.000000000000e+01-1.615625000000e+01 5.137356848676e-09 4.330138416560e-01
   -7.618218660355e-07 9.986738208681e-03 5.438923835754e-06 5.153709384918e+03
    3.168000000000e+05 1.378357410431e-07 2.100208207313e+00 1.136213541031e-07
    9.561022792576e-01 2.684375000000e+02 2.345977929683e-01-8.262129865158e-09
   -4.771627328860e-10 1.000000000000e+00 2.140000000000e+03 0.000000000000e+00
    3.400000000000e+00 0.000000000000e+00-1.303851604462e-08 8.000000000000e+01
    3.096000000000e+05 4.000000000000e+00
31 21  1 13 15 59 44.0-9.365612640977e-05-2.273736754432e-12 0.000000000000e+00
    4.000000000000e+01-1.615625000000e+01 5.137356848676e-09 4.306803512682e-01
   -7.618218660355e-07 9.986736928113e-03 5.440786480904e-06 5.153709392548e+03
    3.167840000000e+05 1.378357410431e-07 2.100208340439e+00 1.136213541031e-07
    9.561022953497e-01 2.684375000000e+02 2.345974799038e-01-8.262487022892e-09
   -4.771627328860e-10 1.000000000000e+00 2.140000000000e+03 0.000000000000e+00
    2.400000000000e+00 0.000000000000e+00-1.303851604462e-08 4.000000000000e+01
    3.125100000000e+05 4.000000000000e+00
15 21  1 13 15 59 44.0-1.765885390341e-04 2.614797267597e-12 0.000000000000e+00
    8.000000000000e+00 1.134375000000e+01 5.370938006841e-09 2.711817343906e+00
    4.656612873077e-07 1.309682708234e-02 9.160488843918e-06 5.153797533035e+03
    3.167840000000e+05-1.303851604462e-08 9.146630356154e-01-1.527369022369e-07
    9.285824275739e-01 1.848750000000e+02 9.660993259833e-01-8.025691445120e-09
    7.146726261264e-10 1.000000000000e+00 2.140000000000e+03 0.000000000000e+00
    2.400000000000e+00 0.000000000000e+00-1.071020960808e-08 8.000000000000e+00
    3.134700000000e+05 4.000000000000e+00
28 21  1 13 15 59 44.0 6.302199326456e-04-5.115907697473e-12 0.000000000000e+00
    1.000000000000e+01 8.106250000000e+01 3.714083277905e-09-1.845284569109e+00
    4.293397068977e-06 1.808863063343e-02 1.152232289314e-05 5.153678176880e+03
    3.167840000000e+05 7.450580596924e-08-3.068273591328e+00 4.898756742477e-07
    9.749260177648e-01 1.672187500000e+02-1.356205985183e+00-7.437095499165e-09
   -5.121641908372e-10 1.000000000000e+00 2.140000000000e+03 0.000000000000e+00
    2.400000000000e+00 0.000000000000e+00-1.117587089539e-08 1.000000000000e+01
    3.141900000000e+05 4.000000000000e+00
14 21  1 13 17 29 36.0 8.481787517667e-05 6.139089236967e-12 0.000000000000e+00
    2.500000000000e+01 5.584375000000e+01 4.303393539329e-09 2.101592157075e+00
    2.915039658546e-06 2.476698718965e-04 1.167133450508e-05 5.153743797302e+03
    3.221760000000e+05-3.725290298462e-09-3.115722777468e+00 0.000000000000e+00
    9.592267401925e-01 1.515000000000e+02 1.928895488274e+00-7.774252400246e-09
   -5.275219734076e-10 1.000000000000e+00 2.140000000000e+03 0.000000000000e+00
    2.400000000000e+00 0.000000000000e+00-2.328306436539e-09 7.930000000000e+02
    3.150000000000e+05 4.000000000000e+00
15 21  1 13 17 59 44.0-1.765699125826e-04 2.614797267597e-12 0.000000000000e+00
    2.000000000000e+01 1.962500000000e+01 5.322007397256e-09-2.521272035866e+00
    6.947666406631e-07 1.309582602698e-02 9.028241038322e-06 5.153799343109e+03
    3.239840000000e+05 1.396983861923e-07 9.146043945442e-01-1.080334186554e-07
    9.285877277261e-01 1.847812500000e+02 9.661140429392e-01-8.089265521807e-09
    8.239628927904e-10 1.000000000000e+00 2.140000000000e+03 0.000000000000e+00
    2.400000000000e+00 0.000000000000e+00-1.071020960808e-08 2.000000000000e+01
    3.168000000000e+05 4.000000000000e+00
28 21  1 13 17 59 44.0 6.301826797426e-04-5.115907697473e-12 0.000000000000e+00
    1.600000000000e+01 6.490625000000e+01 4.033739450011e-09-7.952392996288e-01
    3.417953848839e-06 1.808775647078e-02 1.207739114761e-05 5.153673450470e+03
    3.239840000000e+05-2.607703208923e-07-3.068330422770e+00 2.980232238770e-08
    9.749207527226e-01 1.593125000000e+02-1.356075949321e+00-7.938187800242e-09
   -3.643008888800e-10 1.000000000000e+00 2.140000000000e+03 0.000000000000e+00
    2.400000000000e+00 0.000000000000e+00-1.117587089539e-08 1.600000000000e+01
    3.168000000000e+05 4.000000000000e+00
31 21  1 13 17 59 44.0-9.367289021611e-05-2.273736754432e-12 0.000000000000e+00
    4.100000000000e+01-1.321875000000e+01 5.165215151944e-09 1.480776401561e+00
   -3.874301910400e-07 9.987122379243e-03 5.936250090599e-06 5.153710866928e+03
    3.239840000000e+05 7.450580596924e-09 2.100149516503e+00 1.564621925354e-07
    9.560986599983e-01 2.638125000000e+02 2.346644391272e-01-8.203198839016e-09
   -5.371652322309e-10 1.000000000000e+00 2.140000000000e+03 0.000000000000e+00
    2.400000000000e+00 0.000000000000e+00-1.303851604462e-08 4.100000000000e+01
    3.168000000000e+05 4.000000000000e+00
 2 21  1 13 18  0  0.0-5.655870772898e-04-4.206412995700e-12 0.000000000000e+00
    4.200000000000e+01-5.962500000000e+01 4.480543775490e-09 2.817598357927e+00
   -2.972781658173e-06 2.034967218060e-02-6.593763828278e-07 5.153598548889e+03
    3.240000000000e+05 2.738088369370e-07-1.139417815428e+00-1.192092895508e-07
    9.615182755528e-01 3.900000000000e+02-1.562163215648e+00-8.096051518757e-09
   -1.771502361613e-10 1.000000000000e+00 2.140000000000e+03 0.000000000000e+00
    2.400000000000e+00 0.000000000000e+00-1.769512891769e-08 4.200000000000e+01
    3.168000000000e+05 4.000000000000e+00
 1 21  1 13 18  0  0.0 7.807663641870e-04-6.366462912410e-12 0.000000000000e+00
    3.200000000000e+01-6.828125000000e+01 4.085527321469e-09 2.573878135510e+00
   -3.639608621597e-06 1.025895366911e-02-2.421438694000e-08 5.153693248749e+03
    3.240000000000e+05 0.000000000000e+00-1.058341316987e+00-9.499490261078e-08
    9.827511621820e-01 3.936250000000e+02 8.225187616879e-01-8.144982128342e-09
   -1.350056235261e-10 1.000000000000e+00 2.140000000000e+03 0.000000000000e+00
    2.400000000000e+00 0.000000000000e+00 5.122274160385e-09 3.200000000000e+01
    3.168000000000e+05 4.000000000000e+00
 5 21  1 13 18  0  0.0-3.089616075158e-05-1.023181539495e-12 0.000000000000e+00
    6.600000000000e+01-1.220000000000e+02 4.280535444340e-09-8.811219506317e-01
   -6.197020411491e-06 5.997446482070e-03 1.009739935398e-05 5.153806831360e+03
    3.240000000000e+05 5.029141902924e-08-5.471803401432e-02 1.061707735062e-07
    9.553535958205e-01 1.794375000000e+02 8.893356080549e-01-7.934973380634e-09
    1.089331089298e-10 1.000000000000e+00 2.140000000000e+03 0.000000000000e+00
    2.400000000000e+00 0.000000000000e+00-1.117587089539e-08 6.600000000000e+01
    3.168000000000e+05 4.000000000000e+00
 3 21  1 13 18  0  0.0-5.538575351238e-05-9.890754881781e-12 0.000000000000e+00
    6.500000000000e+01-1.374062500000e+02 3.948378751538e-09 1.405386806973e+00
   -7.178634405136e-06 3.240862162784e-03 1.020543277264e-05 5.153683662415e+03
    3.240000000000e+05-4.470348358154e-08-1.968079637845e-02 2.607703208923e-08
    9.684243182800e-01 1.844375000000e+02 8.743553839770e-01-7.750322832055e-09
    1.178620522847e-10 1.000000000000e+00 2.140000000000e+03 0.000000000000e+00
    2.400000000000e+00 0.000000000000e+00 1.862645149231e-09 6.500000000000e+01
    3.168000000000e+05 4.000000000000e+00
 8 21  1 13 18  0  0.0-6.466172635555e-06-1.364242052659e-12 0.000000000000e+00
    6.000000000000e+01 1.502500000000e+02 4.208746739767e-09-1.469446943678e+00
    7.741153240204e-06 6.077322177589e-03 5.053356289864e-06 5.153780721664e+03
    3.240000000000e+05-7.636845111847e-08-2.131677515028e+00-1.005828380585e-07
    9.683617463479e-01 2.882812500000e+02-4.333205629122e-02-8.078907947515e-09
    3.289422731946e-10 1.000000000000e+00 2.140000000000e+03 0.000000000000e+00
    2.400000000000e+00 0.000000000000e+00 5.122274160385e-09 6.000000000000e+01
    3.168000000000e+05 4.000000000000e+00
 6 21  1 13 18  0  0.0-4.597939550877e-06 2.273736754432e-13 0.000000000000e+00
    8.500000000000e+01-7.178125000000e+01 4.140172454801e-09 2.964244300285e+00
   -3.660097718239e-06 2.224216470495e-03 3.948807716370e-07 5.153691528320e+03
    3.240000000000e+05 4.284083843231e-08-1.066597128394e+00-2.048909664154e-08
    9.822431112139e-01 3.837500000000e+02-1.123703235733e+00-8.171411800672e-09
   -1.453631978178e-10 1.000000000000e+00 2.140000000000e+03 0.000000000000e+00
    2.400000000000e+00 0.000000000000e+00 4.190951585770e-09 8.500000000000e+01
    3.168000000000e+05 4.000000000000e+00
